ONEWEB-0291             
1 49081U 21075G   24149.52057234  .00000020  00000+0  18391-4 0  9992
2 49081  87.9155 155.0930 0002022  80.6817 279.4543 13.17650232134886
ONEWEB-0293             
1 49082U 21075H   24149.54588359  .00000062  00000+0  12592-3 0  9994
2 49082  87.9161 155.1008 0002153  80.2246 279.9129 13.17650972134918
ONEWEB-0294             
1 49083U 21075J   24149.99287919 -.00006139  00000+0 -17124-1 0  9999
2 49083  87.8923 139.8364 0002620  73.1916 286.9500 13.12392002137299
ONEWEB-0295             
1 49084U 21075K   24149.92713500  .00000063  00000+0  12866-3 0  9991
2 49084  87.9163 155.0023 0001800  75.5550 284.5782 13.17651011134924
ONEWEB-0296             
1 49085U 21075L   24149.97531896  .00002294  00000+0  63384-2 0  9991
2 49085  87.8920 139.8409 0001903  67.2840 292.8490 13.12457649137294
ONEWEB-0297             
1 49086U 21075M   24150.00704175  .00003402  00000+0  94122-2 0  9996
2 49086  87.8936 139.8387 0001957  86.7157 273.4196 13.12486594137900
ONEWEB-0298             
1 49087U 21075N   24149.93031488  .00000044  00000+0  80337-4 0  9991
2 49087  87.9162 155.0203 0001851  84.7159 275.4183 13.17649630134950
ONEWEB-0299             
1 49088U 21075P   24149.93187927  .00000041  00000+0  72503-4 0  9995
2 49088  87.9157 154.9904 0001734  84.1659 275.9670 13.17651121134932
